<?xml version='1.0' encoding='utf-8'?>
<stationlist created="1561396302">
  <station code="AOI" commtype="DIG" insttype="" lat="43.5502" lon="13.6020" name="AOI" netid="IV" source="Italian Seismic Network (INGV)">
    <comp name="--.HHE">
      <acc value="1.62517" flag="0"/>
      <vel value="0.79168" flag="0"/>
      <psa03 value="2.86729" flag="0"/>
      <psa10 value="0.89195" flag="0"/>
      <psa30 value="0.26800" flag="0"/>
    </comp>
    <comp name="--.HHN">
      <acc value="2.69668" flag="0"/>
      <vel value="0.76739" flag="0"/>
      <psa03 value="2.55145" flag="0"/>
      <psa10 value="1.02321" flag="0"/>
      <psa30 value="0.36078" flag="0"/>
    </comp>
    <comp name="--.HHZ">
      <acc value="1.68132" flag="0"/>
      <vel value="0.83538" flag="0"/>
      <psa03 value="2.19585" flag="0"/>
      <psa10 value="0.46816" flag="0"/>
      <psa30 value="0.28723" flag="0"/>
    </comp>
  </station>
  <station code="APEC" commtype="DIG" insttype="" lat="43.5585" lon="12.4199" name="APEC" netid="IV" source="Italian Seismic Network (INGV)">
    <comp name="--.HHE">
      <acc value="1.78490" flag="F"/>
      <vel value="0.19296" flag="F"/>
      <psa03 value="1.04696" flag="F"/>
      <psa10 value="0.17506" flag="F"/>
      <psa30 value="0.02268" flag="F"/>
    </comp>
    <comp name="--.HHN">
      <acc value="1.34646" flag="F"/>
      <vel value="0.38549" flag="F"/>
      <psa03 value="2.44300" flag="F"/>
      <psa10 value="0.72985" flag="F"/>
      <psa30 value="0.33363" flag="F"/>
    </comp>
    <comp name="--.HHZ">
      <acc value="1.64780" flag="F"/>
      <vel value="0.47894" flag="F"/>
      <psa03 value="1.98508" flag="F"/>
      <psa10 value="0.69339" flag="F"/>
      <psa30 value="0.45945" flag="F"/>
    </comp>
    <comp name="--.HNE">
      <acc value="0.17896" flag="0"/>
      <vel value="0.26198" flag="0"/>
      <psa03 value="0.62475" flag="0"/>
      <psa10 value="0.33873" flag="0"/>
      <psa30 value="0.08494" flag="0"/>
    </comp>
    <comp name="--.HNN">
      <acc value="0.19021" flag="0"/>
      <vel value="0.31484" flag="0"/>
      <psa03 value="0.60755" flag="0"/>
      <psa10 value="0.27033" flag="0"/>
      <psa30 value="0.09547" flag="0"/>
    </comp>
    <comp name="--.HNZ">
      <acc value="0.12528" flag="0"/>
      <vel value="0.28809" flag="0"/>
      <psa03 value="0.29667" flag="0"/>
      <psa10 value="0.22447" flag="0"/>
      <psa30 value="0.22126" flag="0"/>
    </comp>
  </station>
  <station code="ARRO" commtype="DIG" insttype="" lat="42.5792" lon="12.7657" name="ARRO" netid="IV" source="Italian Seismic Network (INGV)">
    <comp name="--.EHE">
      <acc value="6.18527" flag="0"/>
      <vel value="10.03957" flag="0"/>
      <psa03 value="4.44805" flag="0"/>
      <psa10 value="1.76172" flag="0"/>
      <psa30 value="1.20458" flag="0"/>
    </comp>
    <comp name="--.EHN">
      <acc value="6.87374" flag="0"/>
      <vel value="38.43831" flag="0"/>
      <psa03 value="5.40184" flag="0"/>
      <psa10 value="1.92158" flag="0"/>
      <psa30 value="1.06113" flag="0"/>
    </comp>
    <comp name="--.EHZ">
      <acc value="6.23823" flag="0"/>
      <vel value="17.99304" flag="0"/>
      <psa03 value="3.96450" flag="0"/>
      <psa10 value="2.36570" flag="0"/>
      <psa30 value="0.89756" flag="0"/>
    </comp>
  </station>
  <station code="ARVD" commtype="DIG" insttype="" lat="43.4981" lon="12.9415" name="ARVD" netid="IV" source="Italian Seismic Network (INGV)">
    <comp name="--.HHE">
      <acc value="2.67822" flag="0"/>
      <vel value="0.65979" flag="0"/>
      <psa03 value="1.87816" flag="0"/>
      <psa10 value="0.73995" flag="0"/>
      <psa30 value="0.31829" flag="0"/>
    </comp>
    <comp name="--.HHN">
      <acc value="1.56056" flag="0"/>
      <vel value="0.66836" flag="0"/>
      <psa03 value="2.04006" flag="0"/>
      <psa10 value="0.98673" flag="0"/>
      <psa30 value="0.31466" flag="0"/>
    </comp>
    <comp name="--.HHZ">
      <acc value="2.75032" flag="0"/>
      <vel value="0.62704" flag="0"/>
      <psa03 value="2.92153" flag="0"/>
      <psa10 value="0.78533" flag="0"/>
      <psa30 value="0.30271" flag="0"/>
    </comp>
  </station>
  <station code="ASSB" commtype="DIG" insttype="" lat="43.0426" lon="12.6587" name="ASSB" netid="IV" source="Italian Seismic Network (INGV)">
    <comp name="--.HHE">
      <acc value="0.97797" flag="0"/>
      <vel value="0.13605" flag="0"/>
      <psa03 value="0.75185" flag="0"/>
      <psa10 value="0.23920" flag="0"/>
      <psa30 value="0.13033" flag="0"/>
    </comp>
    <comp name="--.HHN">
      <acc value="0.95293" flag="0"/>
      <vel value="0.14741" flag="0"/>
      <psa03 value="0.86107" flag="0"/>
      <psa10 value="0.29371" flag="0"/>
      <psa30 value="0.06408" flag="0"/>
    </comp>
    <comp name="--.HHZ">
      <acc value="0.96917" flag="0"/>
      <vel value="0.15997" flag="0"/>
      <psa03 value="0.88854" flag="0"/>
      <psa10 value="0.33764" flag="0"/>
      <psa30 value="0.05931" flag="0"/>
    </comp>
  </station>
  <station code="ATBU" commtype="DIG" insttype="" lat="43.4757" lon="12.5483" name="ATBU" netid="IV" source="Italian Seismic Network (INGV)">
    <comp name="--.EHE">
      <acc value="6.18090" flag="0"/>
      <vel value="5.62324" flag="0"/>
      <psa03 value="11.35570" flag="0"/>
      <psa10 value="2.61457" flag="0"/>
      <psa30 value="0.61648" flag="0"/>
    </comp>
    <comp name="--.EHN">
      <acc value="6.36132" flag="0"/>
      <vel value="13.22915" flag="0"/>
      <psa03 value="8.88422" flag="0"/>
      <psa10 value="3.03490" flag="0"/>
      <psa30 value="0.63649" flag="0"/>
    </comp>
    <comp name="--.EHZ">
      <acc value="5.44205" flag="0"/>
      <vel value="9.82469" flag="0"/>
      <psa03 value="4.57411" flag="0"/>
      <psa10 value="1.37220" flag="0"/>
      <psa30 value="0.78269" flag="0"/>
    </comp>
  </station>
  <station code="ATCC" commtype="DIG" insttype="" lat="43.1851" lon="12.6399" name="ATCC" netid="IV" source="Italian Seismic Network (INGV)">
    <comp name="--.EHE">
      <acc value="5.28081" flag="F"/>
      <vel value="11.94287" flag="F"/>
      <psa03 value="7.39398" flag="F"/>
      <psa10 value="2.23040" flag="F"/>
      <psa30 value="0.82039" flag="F"/>
    </comp>
    <comp name="--.EHN">
      <acc value="5.08203" flag="F"/>
      <vel value="7.21754" flag="F"/>
      <psa03 value="9.85245" flag="F"/>
      <psa10 value="1.78871" flag="F"/>
      <psa30 value="0.60304" flag="F"/>
    </comp>
    <comp name="--.EHZ">
      <acc value="3.81984" flag="F"/>
      <vel value="20.48121" flag="F"/>
      <psa03 value="5.70119" flag="F"/>
      <psa10 value="2.29308" flag="F"/>
      <psa30 value="1.10544" flag="F"/>
    </comp>
    <comp name="--.HNE">
      <acc value="3.93411" flag="0"/>
      <vel value="4.18694" flag="0"/>
      <psa03 value="12.04991" flag="0"/>
      <psa10 value="3.82314" flag="0"/>
      <psa30 value="2.37253" flag="0"/>
    </comp>
    <comp name="--.HNN">
      <acc value="3.74654" flag="0"/>
      <vel value="3.35059" flag="0"/>
      <psa03 value="14.51682" flag="0"/>
      <psa10 value="3.62231" flag="0"/>
      <psa30 value="1.71454" flag="0"/>
    </comp>
    <comp name="--.HNZ">
      <acc value="2.54552" flag="0"/>
      <vel value="2.80160" flag="0"/>
      <psa03 value="5.54899" flag="0"/>
      <psa10 value="3.00385" flag="0"/>
      <psa30 value="1.72099" flag="0"/>
    </comp>
  </station>
  <station code="ATFO" commtype="DIG" insttype="" lat="43.3666" lon="12.5715" name="ATFO" netid="IV" source="Italian Seismic Network (INGV)">
    <comp name="--.HHE">
      <acc value="1.52362" flag="F"/>
      <vel value="0.74429" flag="F"/>
      <psa03 value="3.08886" flag="F"/>
      <psa10 value="1.21334" flag="F"/>
      <psa30 value="0.47977" flag="F"/>
    </comp>
    <comp name="--.HHN">
      <acc value="2.17690" flag="F"/>
      <vel value="0.69600" flag="F"/>
      <psa03 value="3.90594" flag="F"/>
      <psa10 value="1.10849" flag="F"/>
      <psa30 value="0.44007" flag="F"/>
    </comp>
    <comp name="--.HHZ">
      <acc value="1.90071" flag="F"/>
      <vel value="0.64872" flag="F"/>
      <psa03 value="2.18270" flag="F"/>
      <psa10 value="0.71759" flag="F"/>
      <psa30 value="0.48333" flag="F"/>
    </comp>
    <comp name="--.HNE">
      <acc value="1.15053" flag="0"/>
      <vel value="1.69660" flag="0"/>
      <psa03 value="3.08504" flag="0"/>
      <psa10 value="1.84876" flag="0"/>
      <psa30 value="0.97164" flag="0"/>
    </comp>
    <comp name="--.HNN">
      <acc value="1.28432" flag="0"/>
      <vel value="1.09908" flag="0"/>
      <psa03 value="4.70005" flag="0"/>
      <psa10 value="1.27912" flag="0"/>
      <psa30 value="0.52746" flag="0"/>
    </comp>
    <comp name="--.HNZ">
      <acc value="0.77710" flag="0"/>
      <vel value="1.06361" flag="0"/>
      <psa03 value="2.88977" flag="0"/>
      <psa10 value="0.81879" flag="0"/>
      <psa30 value="0.52466" flag="0"/>
    </comp>
  </station>
  <station code="ATLO" commtype="DIG" insttype="" lat="43.3152" lon="12.4073" name="ATLO" netid="IV" source="Italian Seismic Network (INGV)">
    <comp name="--.EHE">
      <acc value="1.72937" flag="F"/>
      <vel value="1.59475" flag="F"/>
      <psa03 value="2.12132" flag="F"/>
      <psa10 value="0.94091" flag="F"/>
      <psa30 value="0.29960" flag="F"/>
    </comp>
    <comp name="--.EHN">
      <acc value="4.74598" flag="F"/>
      <vel value="2.64965" flag="F"/>
      <psa03 value="3.33593" flag="F"/>
      <psa10 value="1.01619" flag="F"/>
      <psa30 value="0.56753" flag="F"/>
    </comp>
    <comp name="--.EHZ">
      <acc value="0.59379" flag="F"/>
      <vel value="1.00108" flag="F"/>
      <psa03 value="1.68395" flag="F"/>
      <psa10 value="0.63982" flag="F"/>
      <psa30 value="0.59901" flag="F"/>
    </comp>
    <comp name="--.HNE">
      <acc value="0.96011" flag="0"/>
      <vel value="1.31970" flag="0"/>
      <psa03 value="2.17900" flag="0"/>
      <psa10 value="0.99536" flag="0"/>
      <psa30 value="0.35442" flag="0"/>
    </comp>
    <comp name="--.HNN">
      <acc value="1.12765" flag="0"/>
      <vel value="1.77344" flag="0"/>
      <psa03 value="2.21910" flag="0"/>
      <psa10 value="1.30693" flag="0"/>
      <psa30 value="0.62632" flag="0"/>
    </comp>
    <comp name="--.HNZ">
      <acc value="0.15218" flag="0"/>
      <vel value="0.25404" flag="0"/>
      <psa03 value="0.42291" flag="0"/>
      <psa10 value="0.16870" flag="0"/>
      <psa30 value="0.17363" flag="0"/>
    </comp>
  </station>
  <station code="ATPC" commtype="DIG" insttype="" lat="43.4807" lon="12.4570" name="ATPC" netid="IV" source="Italian Seismic Network (INGV)">
    <comp name="--.HHE">
      <acc value="2.02398" flag="F"/>
      <vel value="0.68065" flag="F"/>
      <psa03 value="3.07266" flag="F"/>
      <psa10 value="1.24709" flag="F"/>
      <psa30 value="0.67899" flag="F"/>
    </comp>
    <comp name="--.HHN">
      <acc value="2.75651" flag="F"/>
      <vel value="0.67798" flag="F"/>
      <psa03 value="4.43056" flag="F"/>
      <psa10 value="0.93605" flag="F"/>
      <psa30 value="0.63246" flag="F"/>
    </comp>
    <comp name="--.HHZ">
      <acc value="2.03048" flag="F"/>
      <vel value="0.66242" flag="F"/>
      <psa03 value="3.41345" flag="F"/>
      <psa10 value="0.65278" flag="F"/>
      <psa30 value="0.70480" flag="F"/>
    </comp>
    <comp name="--.HNE">
      <acc value="1.58426" flag="0"/>
      <vel value="1.66134" flag="0"/>
      <psa03 value="3.95745" flag="0"/>
      <psa10 value="1.25811" flag="0"/>
      <psa30 value="0.75724" flag="0"/>
    </comp>
    <comp name="--.HNN">
      <acc value="1.34197" flag="0"/>
      <vel value="1.79211" flag="0"/>
      <psa03 value="4.41084" flag="0"/>
      <psa10 value="1.48634" flag="0"/>
      <psa30 value="0.76654" flag="0"/>
    </comp>
    <comp name="--.HNZ">
      <acc value="0.73450" flag="0"/>
      <vel value="1.35242" flag="0"/>
      <psa03 value="3.27953" flag="0"/>
      <psa10 value="0.97478" flag="0"/>
      <psa30 value="1.08317" flag="0"/>
    </comp>
  </station>
  <station code="ATPI" commtype="DIG" insttype="" lat="43.4507" lon="12.4022" name="ATPI" netid="IV" source="Italian Seismic Network (INGV)">
    <comp name="--.EHE">
      <acc value="0.40738" flag="0"/>
      <vel value="1.07034" flag="0"/>
      <psa03 value="1.16122" flag="0"/>
      <psa10 value="0.65240" flag="0"/>
      <psa30 value="0.47228" flag="0"/>
    </comp>
    <comp name="--.EHN">
      <acc value="1.10189" flag="0"/>
      <vel value="1.68193" flag="0"/>
      <psa03 value="1.72310" flag="0"/>
      <psa10 value="0.82733" flag="0"/>
      <psa30 value="0.75166" flag="0"/>
    </comp>
    <comp name="--.EHZ">
      <acc value="1.50559" flag="0"/>
      <vel value="1.30765" flag="0"/>
      <psa03 value="1.10207" flag="0"/>
      <psa10 value="0.56364" flag="0"/>
      <psa30 value="1.00139" flag="0"/>
    </comp>
  </station>
  <station code="ATSC" commtype="DIG" insttype="" lat="43.4240" lon="12.6864" name="ATSC" netid="IV" source="Italian Seismic Network (INGV)">
    <comp name="--.EHE">
      <acc value="5.37250" flag="0"/>
      <vel value="1.81129" flag="0"/>
      <psa03 value="8.58404" flag="0"/>
      <psa10 value="0.91092" flag="0"/>
      <psa30 value="0.58983" flag="0"/>
    </comp>
    <comp name="--.EHN">
      <acc value="7.67960" flag="0"/>
      <vel value="5.61986" flag="0"/>
      <psa03 value="6.61774" flag="0"/>
      <psa10 value="0.86478" flag="0"/>
      <psa30 value="0.62036" flag="0"/>
    </comp>
    <comp name="--.EHZ">
      <acc value="4.29199" flag="0"/>
      <vel value="1.31692" flag="0"/>
      <psa03 value="2.20304" flag="0"/>
      <psa10 value="0.61880" flag="0"/>
      <psa30 value="0.52119" flag="0"/>
    </comp>
  </station>
  <station code="ATTE" commtype="DIG" insttype="" lat="43.1979" lon="12.3536" name="ATTE" netid="IV" source="Italian Seismic Network (INGV)">
    <comp name="--.HHE">
      <acc value="1.80199" flag="F"/>
      <vel value="0.69985" flag="F"/>
      <psa03 value="2.26349" flag="F"/>
      <psa10 value="0.95507" flag="F"/>
      <psa30 value="0.48317" flag="F"/>
    </comp>
    <comp name="--.HHN">
      <acc value="1.41092" flag="F"/>
      <vel value="0.69829" flag="F"/>
      <psa03 value="2.27599" flag="F"/>
      <psa10 value="0.90295" flag="F"/>
      <psa30 value="0.29233" flag="F"/>
    </comp>
    <comp name="--.HHZ">
      <acc value="1.45571" flag="F"/>
      <vel value="0.76391" flag="F"/>
      <psa03 value="1.11695" flag="F"/>
      <psa10 value="0.65869" flag="F"/>
      <psa30 value="0.32163" flag="F"/>
    </comp>
    <comp name="--.HNE">
      <acc value="0.76026" flag="0"/>
      <vel value="1.02182" flag="0"/>
      <psa03 value="2.63764" flag="0"/>
      <psa10 value="1.03570" flag="0"/>
      <psa30 value="0.46266" flag="0"/>
    </comp>
    <comp name="--.HNN">
      <acc value="0.90711" flag="0"/>
      <vel value="0.99532" flag="0"/>
      <psa03 value="2.21350" flag="0"/>
      <psa10 value="0.88034" flag="0"/>
      <psa30 value="0.28819" flag="0"/>
    </comp>
    <comp name="--.HNZ">
      <acc value="0.44773" flag="0"/>
      <vel value="1.12477" flag="0"/>
      <psa03 value="0.95123" flag="0"/>
      <psa10 value="0.80952" flag="0"/>
      <psa30 value="0.50140" flag="0"/>
    </comp>
  </station>
  <station code="ATVO" commtype="DIG" insttype="" lat="43.3821" lon="12.4066" name="ATVO" netid="IV" source="Italian Seismic Network (INGV)">
    <comp name="--.HHE">
      <acc value="1.84756" flag="F"/>
      <vel value="0.75464" flag="F"/>
      <psa03 value="2.73914" flag="F"/>
      <psa10 value="1.29946" flag="F"/>
      <psa30 value="0.59980" flag="F"/>
    </comp>
    <comp name="--.HHN">
      <acc value="1.61997" flag="F"/>
      <vel value="0.62041" flag="F"/>
      <psa03 value="2.10380" flag="F"/>
      <psa10 value="0.94572" flag="F"/>
      <psa30 value="0.47292" flag="F"/>
    </comp>
    <comp name="--.HHZ">
      <acc value="1.34271" flag="F"/>
      <vel value="0.69806" flag="F"/>
      <psa03 value="1.60073" flag="F"/>
      <psa10 value="0.67330" flag="F"/>
      <psa30 value="0.88856" flag="F"/>
    </comp>
    <comp name="--.HNE">
      <acc value="0.87174" flag="0"/>
      <vel value="1.32859" flag="0"/>
      <psa03 value="2.53598" flag="0"/>
      <psa10 value="1.40985" flag="0"/>
      <psa30 value="1.14435" flag="0"/>
    </comp>
    <comp name="--.HNN">
      <acc value="0.69243" flag="0"/>
      <vel value="1.39889" flag="0"/>
      <psa03 value="2.29805" flag="0"/>
      <psa10 value="0.86541" flag="0"/>
      <psa30 value="0.52797" flag="0"/>
    </comp>
    <comp name="--.HNZ">
      <acc value="0.59672" flag="0"/>
      <vel value="1.15085" flag="0"/>
      <psa03 value="1.65174" flag="0"/>
      <psa10 value="0.84104" flag="0"/>
      <psa30 value="1.11173" flag="0"/>
    </comp>
  </station>
  <station code="CADA" commtype="DIG" insttype="" lat="43.1942" lon="13.7614" name="CADA" netid="IV" source="Italian Seismic Network (INGV)">
    <comp name="--.HNE">
      <acc value="5.41589" flag="0"/>
      <vel value="6.40621" flag="0"/>
      <psa03 value="14.28177" flag="0"/>
      <psa10 value="5.64906" flag="0"/>
      <psa30 value="0.89698" flag="0"/>
    </comp>
    <comp name="--.HNN">
      <acc value="4.37490" flag="0"/>
      <vel value="4.70910" flag="0"/>
      <psa03 value="8.60399" flag="0"/>
      <psa10 value="3.87951" flag="0"/>
      <psa30 value="1.15729" flag="0"/>
    </comp>
    <comp name="--.HNZ">
      <acc value="2.69309" flag="0"/>
      <vel value="3.66942" flag="0"/>
      <psa03 value="10.43656" flag="0"/>
      <psa10 value="1.41187" flag="0"/>
      <psa30 value="0.56037" flag="0"/>
    </comp>
  </station>
  <station code="CAMP" commtype="DIG" insttype="" lat="42.5358" lon="13.4090" name="CAMP" netid="IV" source="Italian Seismic Network (INGV)">
    <comp name="--.HHE">
      <acc value="2.96709" flag="0"/>
      <vel value="2.00559" flag="0"/>
      <psa03 value="6.98690" flag="0"/>
      <psa10 value="3.11717" flag="0"/>
      <psa30 value="1.30405" flag="0"/>
    </comp>
    <comp name="--.HHN">
      <acc value="2.40681" flag="0"/>
      <vel value="2.25682" flag="0"/>
      <psa03 value="5.39465" flag="0"/>
      <psa10 value="2.74866" flag="0"/>
      <psa30 value="2.30505" flag="0"/>
    </comp>
    <comp name="--.HHZ">
      <acc value="2.73380" flag="0"/>
      <vel value="1.91532" flag="0"/>
      <psa03 value="3.17541" flag="0"/>
      <psa10 value="1.99142" flag="0"/>
      <psa30 value="2.53821" flag="0"/>
    </comp>
  </station>
  <station code="CESI" commtype="DIG" insttype="" lat="43.0049" lon="12.9046" name="CESI" netid="IV" source="Italian Seismic Network (INGV)">
    <comp name="--.HHE">
      <acc value="1.89946" flag="0"/>
      <vel value="0.55577" flag="0"/>
      <psa03 value="2.72988" flag="0"/>
      <psa10 value="0.50824" flag="0"/>
      <psa30 value="0.05586" flag="0"/>
    </comp>
    <comp name="--.HHN">
      <acc value="2.34739" flag="0"/>
      <vel value="0.41073" flag="0"/>
      <psa03 value="1.43756" flag="0"/>
      <psa10 value="0.47151" flag="0"/>
      <psa30 value="0.08395" flag="0"/>
    </comp>
    <comp name="--.HHZ">
      <acc value="1.90148" flag="0"/>
      <vel value="0.52636" flag="0"/>
      <psa03 value="2.56647" flag="0"/>
      <psa10 value="0.93640" flag="0"/>
      <psa30 value="0.07325" flag="0"/>
    </comp>
  </station>
  <station code="CESX" commtype="DIG" insttype="" lat="42.6085" lon="12.5868" name="CESX" netid="IV" source="Italian Seismic Network (INGV)">
    <comp name="--.HHE">
      <acc value="2.67821" flag="0"/>
      <vel value="1.83233" flag="0"/>
      <psa03 value="3.14735" flag="0"/>
      <psa10 value="1.59186" flag="0"/>
      <psa30 value="1.28747" flag="0"/>
    </comp>
    <comp name="--.HHN">
      <acc value="1.96127" flag="0"/>
      <vel value="2.09869" flag="0"/>
